[{"OBJECT_NAME":"TRANSPORTER-12 OBJECT M","OBJECT_ID":"2025-009M","EPOCH":"2026-03-09T18:04:47.718048","MEAN_MOTION":15.47061993,"ECCENTRICITY":0.00032421,"INCLINATION":97.3973,"RA_OF_ASC_NODE":155.5568,"ARG_OF_PERICENTER":277.4254,"MEAN_ANOMALY":82.6627,"EPHEMERIS_TYPE":0,"CLASSIFICATION_TYPE":"U","NORAD_CAT_ID":62620,"ELEMENT_SET_NO":999,"REV_AT_EPOCH":6401,"BSTAR":0.0012092912,"MEAN_MOTION_DOT":0.00061492,"MEAN_MOTION_DDOT":0},{"OBJECT_NAME":"COSMOS 2251 DEB","OBJECT_ID":"1993-036GV","EPOCH":"2026-03-09T11:43:36.136416","MEAN_MOTION":15.43449097,"ECCENTRICITY":0.00140641,"INCLINATION":73.9879,"RA_OF_ASC_NODE":98.5343,"ARG_OF_PERICENTER":278.4035,"MEAN_ANOMALY":81.558,"EPHEMERIS_TYPE":0,"CLASSIFICATION_TYPE":"U","NORAD_CAT_ID":34010,"ELEMENT_SET_NO":999,"REV_AT_EPOCH":90611,"BSTAR":0.0056310158,"MEAN_MOTION_DOT":0.00261542,"MEAN_MOTION_DDOT":0}]
